# Made by eph2tle, compiled Feb  2 2025 14:11:09
# Run at Tue Mar  4 15:09:12 2025 UTC
#
#    The following TLEs (Two-Line Elements) were generated by fitting
# a numerically-integrated ephemeris,  based on the orbit given below,
# to the SDP4/SGP4 models.  Each TLE is good for the interval between
# its epoch and the epoch of the subsequent TLE (usually one day).
# The maximum deviation between the numerically integrated ephemerides
# and the TLE-based ephemeris, in kilometers,  is given for each TLE
# as the "worst residual".
#
#    This fitting is done using the 'eph2tle' code packaged with Find_Orb.
# The code has details on how the TLEs were computed :
#
#    https://github.com/Bill-Gray/find_orb/eph2tle.cpp
#
#    Be warned:  the error given is that between the numerically
# integrated ephems and the TLE model.  There will usually be at
# least some additional difference between the ephems and the actual
# motion of the satellite,  especially if the ephemerides are based
# on a short arc.  If the following orbital elements say something
# like "[based on] 10 observations 2015 Jan. 1-13",  and the TLEs
# are for 2015 May,  the extrapolation may be tenuous at best.  If
# your application requires a specific level of accuracy,  you may
# want to contact me;  I can give you some idea as to the fit of the
# underlying data (and possibly TLEs based on newer data).
#
#   You can usually find the underlying observational data,  and the
# fitted orbit,  residuals,  ephemerides,  and sometimes some comments
# about the object,  among the pages listed at
#
#    https://www.projectpluto.com/pluto/mpecs/pseudo.htm
#
#    WARNING:  for this object,  "normal" TLEs cannot be fitted.  (This
# usually means an object with an hyperbolic or nearly-parabolic orbit.)
# For this and similar cases,   an alternative model is used,  in which
# most of the traditional TLE data is replaced by six signed 8-digit hex
# numbers.  These six numbers are a state vector,  numerically integrated
# using a simplified force model.  This is necessary for objects at L2 or
# L1,  and sometimes for objects in high orbits where the SDP4/SGP4 model
# fails.  Some documentation is in 'get_el.cpp' in the source code at
# https://www.github.com/Bill-Gray/sat_code ; look for 'hex' in that file,
# with the actual integration done in 'sdp4.cpp'.  But be aware:  it's my
# own extension,  doesn't work with other code,  and is therefore used
# only when necessary.
#
#    Also,  if you use a TLE outside the "correct" time range (between
# its MJD and that of the next TLE),  all bets are off.  I've carefully
# computed and minimized the worst error over the "correct" time frame,
# but the ephemeris may (or may not) diverge wildly outside of it.
#
# Ephem range: 60733.000000 60764.000000 1.000000
# Created Tue Mar  4 10:09:10 2025
# Ephemeris start: 27 Feb 2025  0:00:00
# Ephemeris end:   30 Mar 2025  0:00:00
# Times are all TDT
# Positions/velocities are in equatorial J2000
# Orbital elements:  2025-038E = NORAD 63103 = Falcon 9-442 Stage 2
#    Perigee 2025 Feb 27.049250 +/- 3.4839e-5 TT =  1:10:55.2 (JD 2460733.549250)
# Epoch 2025 Mar  2.0 TT = JDT 2460736.5                           Find_Orb
# M 117.823755310 +/- 0.001260        (J2000 equator)
# n  39.930106788 +/- 4.8739e-5       Peri.  215.424365 +/- 0.0001979
# a182979.8181 +/- 0.14889            Node   356.885676 +/- 0.0002218
# e   0.97155129 +/- 1.0096e-6        Incl.   28.280460 +/- 0.0001561
# P   9.0156d                H 23.76  G  0.15   U  6.1
# q 5205.539629 +/- 0.18885    Q 360754.0967 +/- 0.12374
# 77 of 78 observations 2025 Feb. 28-Mar. 4; mean residual 1".071
# LAUNCH at  27 Feb 2025  1:17:11.31 lat -28.42631 lon E87.95915
#
# 1 NoradU COSPAR   Epoch.epoch     dn/dt/2  d2n/dt2/6 BSTAR    T El# C
# 2 NoradU Inclina RAAscNode Eccent  ArgPeri MeanAno  MeanMotion Rev# C

# Worst residual: 277.54 km
# MJD 60733.000000 (2025 Feb 27  0:00)
2025-038E = NORAD 63103 = Falcon 9-442 Stage 2
1 63103U 25038E   25057.99919926 -00022OQV +000B6IUX +00060GSWH 26202
2 63103                          -000EURC2 -000RS58G -000FG4XM     07

# Worst residual: 0.73 km
# MJD 60734.000000 (2025 Feb 28  0:00)
2025-038E = NORAD 63103 = Falcon 9-442 Stage 2
1 63103U 25038E   25058.99919926 +0030ZHUE +000WIGGO +000KIQFAH 26209
2 63103                          +0006TIHR +00042Q5D +0002E2RP     06

# Worst residual: 4.11 km
# MJD 60735.000000 (2025 Mar  1  0:00)
2025-038E = NORAD 63103 = Falcon 9-442 Stage 2
1 63103U 25038E   25059.99919926 +0047O214 +001Q3BGV +0011OR6OH 26207
2 63103                          +0003I18M +0002UYUZ +0001N4OU     04

# Worst residual: 29.01 km
# MJD 60736.000000 (2025 Mar  2  0:00)
2025-038E = NORAD 63103 = Falcon 9-442 Stage 2
1 63103U 25038E   25060.99919926 +004TCK30 +002AQ7IS +001DFBUCH 26206
2 63103                          +0001N16J +0001XMSP +0001342J     04

# Worst residual: 8093.12 km
# MJD 60737.000000 (2025 Mar  3  0:00)
2025-038E = NORAD 63103 = Falcon 9-442 Stage 2
1 63103U 25038E   25061.99919926 +0051L27G +002NB5FB +001KBQECH 26203
2 63103                          +0000DHFV +0000WJ2P +0000GHEZ     07

# Worst residual: 103.41 km
# MJD 60738.000000 (2025 Mar  4  0:00)
2025-038E = NORAD 63103 = Falcon 9-442 Stage 2
1 63103U 25038E   25062.99919926 +00570RHR +003OYLN7 +001DS8T2H 26204
2 63103                          -0000MGVV +0008CXZB -0000JI0P     05

# Worst residual: 6.18 km
# MJD 60739.000000 (2025 Mar  5  0:00)
2025-038E = NORAD 63103 = Falcon 9-442 Stage 2
1 63103U 25038E   25063.99919926 +004W91IC +005KE04J +0019F4Q0H 26209
2 63103                          -0001PSPZ +0007BVR6 -0000J4F8     03

# Worst residual: 1.05 km
# MJD 60740.000000 (2025 Mar  6  0:00)
2025-038E = NORAD 63103 = Falcon 9-442 Stage 2
1 63103U 25038E   25064.99919926 +004EQBTT +00788QVB +0014F303H 26201
2 63103                          -0002ADHN +0006JQLG -0000MH2V     07

# Worst residual: 0.30 km
# MJD 60741.000000 (2025 Mar  7  0:00)
2025-038E = NORAD 63103 = Falcon 9-442 Stage 2
1 63103U 25038E   25065.99919926 +003TD2OQ +008PW4FS +000YP6BYH 26207
2 63103                          -0002MO2Z +0005VZLS -0000P1K0     07

# Worst residual: 0.20 km
# MJD 60742.000000 (2025 Mar  8  0:00)
2025-038E = NORAD 63103 = Falcon 9-442 Stage 2
1 63103U 25038E   25066.99919926 +0035O8NP +00A2A389 +000SGL9UH 26202
2 63103                          -0002U4CZ +0005BRWW -0000QTXQ     08

# Worst residual: 0.22 km
# MJD 60743.000000 (2025 Mar  9  0:00)
2025-038E = NORAD 63103 = Falcon 9-442 Stage 2
1 63103U 25038E   25067.99919926 +002GL07A +00BA6AB3 +000LV6I9H 26209
2 63103                          -0002YK8X +0004UFX8 -0000S1K3     03

# Worst residual: 0.22 km
# MJD 60744.000000 (2025 Mar 10  0:00)
2025-038E = NORAD 63103 = Falcon 9-442 Stage 2
1 63103U 25038E   25068.99919926 +001QODMX +00CE762Z +000F178NH 26209
2 63103                          -00031277 +0004FG1N -0000SU4M     06

# Worst residual: 0.23 km
# MJD 60745.000000 (2025 Mar 11  0:00)
2025-038E = NORAD 63103 = Falcon 9-442 Stage 2
1 63103U 25038E   25069.99919926 +0010C3BP +00DEUZ3V +00081RPWH 26204
2 63103                          -000329TV +00042CNQ -0000TBI3     00

# Worst residual: 0.23 km
# MJD 60746.000000 (2025 Mar 12  0:00)
2025-038E = NORAD 63103 = Falcon 9-442 Stage 2
1 63103U 25038E   25070.99919926 +0009TBIW +00ECKM5O +0000Z8V4H 26206
2 63103                          -00032M9O +0003QTJH -0000TK8U     02

# Worst residual: 0.28 km
# MJD 60747.000000 (2025 Mar 13  0:00)
2025-038E = NORAD 63103 = Falcon 9-442 Stage 2
1 63103U 25038E   25071.99919926 -000GPQNN +00F7OEGP -00064IQPH 26200
2 63103                          -00032DLU +0003GL54 -0000TM3N     07

# Worst residual: 0.28 km
# MJD 60748.000000 (2025 Mar 14  0:00)
2025-038E = NORAD 63103 = Falcon 9-442 Stage 2
1 63103U 25038E   25072.99919926 -00174WRZ +00G0GLZZ -000D816UH 26201
2 63103                          -00031QTD +00037FXL -0000TIB5     06

# Worst residual: 0.28 km
# MJD 60749.000000 (2025 Mar 15  0:00)
2025-038E = NORAD 63103 = Falcon 9-442 Stage 2
1 63103U 25038E   25073.99919926 -001XDFFL +00GR5WBB -000KA1X1H 26203
2 63103                          -00030UVF +0002Z7VY -0000T9SU     08

# Worst residual: 0.30 km
# MJD 60750.000000 (2025 Mar 16  0:00)
2025-038E = NORAD 63103 = Falcon 9-442 Stage 2
1 63103U 25038E   25074.99919926 -002NDK22 +00HFZM24 -000R9JHMH 26207
2 63103                          -0002ZTF1 +0002RS3P -0000SXBH     05

# Worst residual: 0.33 km
# MJD 60751.000000 (2025 Mar 17  0:00)
2025-038E = NORAD 63103 = Falcon 9-442 Stage 2
1 63103U 25038E   25075.99919926 -003D4BBH +00I341C1 -000Y5MC0H 26208
2 63103                          -0002YP60 +0002L0IM -0000SHHJ     07

# Worst residual: 0.35 km
# MJD 60752.000000 (2025 Mar 18  0:00)
2025-038E = NORAD 63103 = Falcon 9-442 Stage 2
1 63103U 25038E   25076.99919926 -0042LACW +00IOOK27 -0014XJXMH 26208
2 63103                          -0002XK6G +0002ETPS -0000RYUT     07

# Worst residual: 0.51 km
# MJD 60753.000000 (2025 Mar 19  0:00)
2025-038E = NORAD 63103 = Falcon 9-442 Stage 2
1 63103U 25038E   25077.99919926 -004RSHX2 +00J8TSWB -001BKQAJH 26204
2 63103                          -0002WG17 +000294S5 -0000RDXC     07

# Worst residual: 0.71 km
# MJD 60754.000000 (2025 Mar 20  0:00)
2025-038E = NORAD 63103 = Falcon 9-442 Stage 2
1 63103U 25038E   25078.99919926 -005GQAS7 +00JRNR1U -001I2NL5H 26201
2 63103                          -0002VDYE +00023V6Q -0000QR5Y     05

# Worst residual: 0.85 km
# MJD 60755.000000 (2025 Mar 21  0:00)
2025-038E = NORAD 63103 = Falcon 9-442 Stage 2
1 63103U 25038E   25079.99919926 -0065FB62 +00K99T88 -001OEXYHH 26205
2 63103                          -0002UEWX +0001YYP6 -0000Q30Y     09

# Worst residual: 0.88 km
# MJD 60756.000000 (2025 Mar 22  0:00)
2025-038E = NORAD 63103 = Falcon 9-442 Stage 2
1 63103U 25038E   25080.99919926 -006TWCS5 +00KPQVTO -001ULBGCH 26205
2 63103                          -0002TJOO +0001UDAR -0000PDYP     00

# Worst residual: 0.76 km
# MJD 60757.000000 (2025 Mar 23  0:00)
2025-038E = NORAD 63103 = Falcon 9-442 Stage 2
1 63103U 25038E   25081.99919926 -007I6FAV +00L55EF3 -0020LM58H 26205
2 63103                          -0002SSVL +0001Q13M -0000OOGH     04

# Worst residual: 0.64 km
# MJD 60758.000000 (2025 Mar 24  0:00)
2025-038E = NORAD 63103 = Falcon 9-442 Stage 2
1 63103U 25038E   25082.99919926 -0086AMZR +00LJJCMG -0026FSF9H 26206
2 63103                          -0002S6XT +0001LWA4 -0000NZ16     07

# Worst residual: 0.57 km
# MJD 60759.000000 (2025 Mar 25  0:00)
2025-038E = NORAD 63103 = Falcon 9-442 Stage 2
1 63103U 25038E   25083.99919926 -008UA74P +00LWYACN -002C3XH2H 26202
2 63103                          -0002RQ3X +0001HX0U -0000NA9X     02

# Worst residual: 0.34 km
# MJD 60760.000000 (2025 Mar 26  0:00)
2025-038E = NORAD 63103 = Falcon 9-442 Stage 2
1 63103U 25038E   25084.99919926 -009I6BVC +00M9FBPY -002HM9U9H 26201
2 63103                          -0002REC1 +0001E1HK -0000MMU5     07

# Worst residual: 0.46 km
# MJD 60761.000000 (2025 Mar 27  0:00)
2025-038E = NORAD 63103 = Falcon 9-442 Stage 2
1 63103U 25038E   25085.99919926 -00A60798 +00MKZ4YW -002MZ7VQH 26201
2 63103                          -0002R75R +0001A7UJ -0000M1EL     00

# Worst residual: 0.86 km
# MJD 60762.000000 (2025 Mar 28  0:00)
2025-038E = NORAD 63103 = Falcon 9-442 Stage 2
1 63103U 25038E   25086.99919926 -00ATSTA6 +00MVLYYR -002S7BTHH 26204
2 63103                          -0002R3MM +00016EEE -0000LIMU     09

# Worst residual: 1.26 km
# MJD 60763.000000 (2025 Mar 29  0:00)
2025-038E = NORAD 63103 = Falcon 9-442 Stage 2
1 63103U 25038E   25087.99919926 -00BHKVDO +00N5BP0H -002XBB0CH 26207
2 63103                          -0002R29A +00012JQQ -0000L31E     07
Avg worst resid: 275.04 km
Worst residual in entire run: 8093.12 km on MJD 60737.0
       1     3     10    30    100   300   1K    3K    10K   km
    23     2     2     1     0     2     0     0     1     0
